{"type": "FeatureCollection", "features": [ {"type": "Feature", "properties": {"norad_id": 66583, "name": "STARLINK-35941", "group": "last-30-days", "lat": 22.812066320335045, "lon": 179.7076203236089, "alt_km": 387.7179677579943, "timestamp": "2025-12-07T07:31:35.086661+00:00", "meta": {"OBJECT_NAME": "STARLINK-35941", "OBJECT_ID": "2025-268AC", "EPOCH": "2025-12-06T22:00:01.999584", "MEAN_MOTION": 15.60629747, "ECCENTRICITY": 0.00016903, "INCLINATION": 42.9996, "RA_OF_ASC_NODE": 155.2298, "ARG_OF_PERICENTER": 269.8431, "MEAN_ANOMALY": 53.4415, "EPHEMERIS_TYPE": 0, "CLASSIFICATION_TYPE": "U", "NORAD_CAT_ID": 66583, "ELEMENT_SET_NO": 999, "REV_AT_EPOCH": 373, "BSTAR": -0.025839795, "MEAN_MOTION_DOT": -0.01939311, "MEAN_MOTION_DDOT": 0}, "tle": {"line1": "1 66583U 25268AC  25340.91668981 -.01939311  00000+0 -25840-1 0  9991", "line2": "2 66583  42.9996 155.2298 0001690 269.8431  53.4415 15.60629747  3732"}}, "geometry": {"type": "Point", "coordinates": [179.7076203236089, 22.812066320335045]}}, {"type": "Feature", "properties": {"norad_id": 66584, "name": "STARLINK-35939", "group": "last-30-days", "lat": 23.971011776447494, "lon": -178.62948708116951, "alt_km": 387.52689570145685, "timestamp": "2025-12-07T07:31:35.086674+00:00", "meta": {"OBJECT_NAME": "STARLINK-35939", "OBJECT_ID": "2025-268AD", "EPOCH": "2025-12-06T22:00:01.999584", "MEAN_MOTION": 15.60626363, "ECCENTRICITY": 0.00017669, "INCLINATION": 42.9996, "RA_OF_ASC_NODE": 155.2255, "ARG_OF_PERICENTER": 273.1119, "MEAN_ANOMALY": 52.0929, "EPHEMERIS_TYPE": 0, "CLASSIFICATION_TYPE": "U", "NORAD_CAT_ID": 66584, "ELEMENT_SET_NO": 999, "REV_AT_EPOCH": 373, "BSTAR": -0.025815591, "MEAN_MOTION_DOT": -0.01937542, "MEAN_MOTION_DDOT": 0}, "tle": {"line1": "1 66584U 25268AD  25340.91668981 -.01937542  00000+0 -25816-1 0  9999", "line2": "2 66584  42.9996 155.2255 0001766 273.1119  52.0929 15.60626363  3737"}}, "geometry": {"type": "Point", "coordinates": [-178.62948708116951, 23.971011776447494]}}, {"type": "Feature", "properties": {"norad_id": 66585, "name": "STARLINK-35963", "group": "last-30-days", "lat": 25.11142214808805, "lon": -176.93729921879955, "alt_km": 387.3106010661013, "timestamp": "2025-12-07T07:31:35.086684+00:00", "meta": {"OBJECT_NAME": "STARLINK-35963", "OBJECT_ID": "2025-268AE", "EPOCH": "2025-12-06T22:00:01.999584", "MEAN_MOTION": 15.60633263, "ECCENTRICITY": 0.00016654, "INCLINATION": 42.9996, "RA_OF_ASC_NODE": 155.2208, "ARG_OF_PERICENTER": 274.7221, "MEAN_ANOMALY": 52.3972, "EPHEMERIS_TYPE": 0, "CLASSIFICATION_TYPE": "U", "NORAD_CAT_ID": 66585, "ELEMENT_SET_NO": 999, "REV_AT_EPOCH": 373, "BSTAR": -0.025940391, "MEAN_MOTION_DOT": -0.01946173, "MEAN_MOTION_DDOT": 0}, "tle": {"line1": "1 66585U 25268AE  25340.91668981 -.01946173  00000+0 -25940-1 0  9998", "line2": "2 66585  42.9996 155.2208 0001665 274.7221  52.3972 15.60633263  3733"}}, "geometry": {"type": "Point", "coordinates": [-176.93729921879955, 25.11142214808805]}}, {"type": "Feature", "properties": {"norad_id": 66586, "name": "TJS-21", "group": "last-30-days", "lat": 47.03684250956549, "lon": -164.31072200819156, "alt_km": 25968.958236011385, "timestamp": "2025-12-07T07:31:35.086697+00:00", "meta": {"OBJECT_NAME": "TJS-21", "OBJECT_ID": "2025-269A", "EPOCH": "2025-12-06T17:47:41.602272", "MEAN_MOTION": 2.00560491, "ECCENTRICITY": 0.68052367, "INCLINATION": 63.2668, "RA_OF_ASC_NODE": 162.9832, "ARG_OF_PERICENTER": 269.7989, "MEAN_ANOMALY": 18.6583, "EPHEMERIS_TYPE": 0, "CLASSIFICATION_TYPE": "U", "NORAD_CAT_ID": 66586, "ELEMENT_SET_NO": 999, "REV_AT_EPOCH": 32, "BSTAR": -0.014744059, "MEAN_MOTION_DOT": 1.105e-05, "MEAN_MOTION_DDOT": 0}, "tle": {"line1": "1 66586U 25269A   25340.74145373  .00001105  00000+0 -14744-1 0  9991", "line2": "2 66586  63.2668 162.9832 6805236 269.7989  18.6583  2.00560491   328"}}, "geometry": {"type": "Point", "coordinates": [-164.31072200819156, 47.03684250956549]}}, {"type": "Feature", "properties": {"norad_id": 66587, "name": "CZ-3B R/B", "group": "last-30-days", "lat": -34.672938788168466, "lon": 24.501996250401646, "alt_km": 170.19931520088176, "timestamp": "2025-12-07T07:31:35.086710+00:00", "meta": {"OBJECT_NAME": "CZ-3B R/B", "OBJECT_ID": "2025-269B", "EPOCH": "2025-12-05T21:16:01.117056", "MEAN_MOTION": 2.02575003, "ECCENTRICITY": 0.75200619, "INCLINATION": 51.3669, "RA_OF_ASC_NODE": 171.2323, "ARG_OF_PERICENTER": 227.4915, "MEAN_ANOMALY": 38.5744, "EPHEMERIS_TYPE": 0, "CLASSIFICATION_TYPE": "U", "NORAD_CAT_ID": 66587, "ELEMENT_SET_NO": 999, "REV_AT_EPOCH": 31, "BSTAR": 0.0017517289, "MEAN_MOTION_DOT": 0.00055981, "MEAN_MOTION_DDOT": -8.28456e-07}, "tle": {"line1": "1 66587U 25269B   25339.88612404  .00055981 -82846-6  17517-2 0  9997", "line2": "2 66587  51.3669 171.2323 7520061 227.4915  38.5744  2.02575003   313"}}, "geometry": {"type": "Point", "coordinates": [24.501996250401646, -34.672938788168466]}}, {"type": "Feature", "properties": {"norad_id": 66588, "name": "STARLINK-36076", "group": "last-30-days", "lat": -20.381351781958205, "lon": 68.19357061764973, "alt_km": 373.3685435732832, "timestamp": "2025-12-07T07:31:35.086722+00:00", "meta": {"OBJECT_NAME": "STARLINK-36076", "OBJECT_ID": "2025-270A", "EPOCH": "2025-12-06T22:00:01.999584", "MEAN_MOTION": 15.6714256, "ECCENTRICITY": 0.00010268, "INCLINATION": 42.999, "RA_OF_ASC_NODE": 227.073, "ARG_OF_PERICENTER": 263.3011, "MEAN_ANOMALY": 226.6327, "EPHEMERIS_TYPE": 0, "CLASSIFICATION_TYPE": "U", "NORAD_CAT_ID": 66588, "ELEMENT_SET_NO": 999, "REV_AT_EPOCH": 346, "BSTAR": -0.020574179, "MEAN_MOTION_DOT": -0.01995253, "MEAN_MOTION_DDOT": 0}, "tle": {"line1": "1 66588U 25270A   25340.91668981 -.01995253  00000+0 -20574-1 0  9995", "line2": "2 66588  42.9990 227.0730 0001026 263.3011 226.6327 15.67142560  3462"}}, "geometry": {"type": "Point", "coordinates": [68.19357061764973, -20.381351781958205]}}, {"type": "Feature", "properties": {"norad_id": 66589, "name": "STARLINK-35447", "group": "last-30-days", "lat": -22.74560824000145, "lon": 71.42468440973462, "alt_km": 373.470597033127, "timestamp": "2025-12-07T07:31:35.086732+00:00", "meta": {"OBJECT_NAME": "STARLINK-35447", "OBJECT_ID": "2025-270B", "EPOCH": "2025-12-06T22:00:01.999584", "MEAN_MOTION": 15.67155778, "ECCENTRICITY": 0.00012646, "INCLINATION": 42.9987, "RA_OF_ASC_NODE": 227.0628, "ARG_OF_PERICENTER": 266.3442, "MEAN_ANOMALY": 227.4166, "EPHEMERIS_TYPE": 0, "CLASSIFICATION_TYPE": "U", "NORAD_CAT_ID": 66589, "ELEMENT_SET_NO": 999, "REV_AT_EPOCH": 357, "BSTAR": -0.020728332, "MEAN_MOTION_DOT": -0.02009524, "MEAN_MOTION_DDOT": 0}, "tle": {"line1": "1 66589U 25270B   25340.91668981 -.02009524  00000+0 -20728-1 0  9995", "line2": "2 66589  42.9987 227.0628 0001264 266.3442 227.4166 15.67155778  3577"}}, "geometry": {"type": "Point", "coordinates": [71.42468440973462, -22.74560824000145]}}, {"type": "Feature", "properties": {"norad_id": 66590, "name": "STARLINK-35429", "group": "last-30-days", "lat": -21.571525535044145, "lon": 69.79573420764989, "alt_km": 373.4329335446582, "timestamp": "2025-12-07T07:31:35.086744+00:00", "meta": {"OBJECT_NAME": "STARLINK-35429", "OBJECT_ID": "2025-270C", "EPOCH": "2025-12-06T22:00:01.999584", "MEAN_MOTION": 15.67153528, "ECCENTRICITY": 0.00012475, "INCLINATION": 42.9989, "RA_OF_ASC_NODE": 227.0675, "ARG_OF_PERICENTER": 267.5201, "MEAN_ANOMALY": 224.3258, "EPHEMERIS_TYPE": 0, "CLASSIFICATION_TYPE": "U", "NORAD_CAT_ID": 66590, "ELEMENT_SET_NO": 999, "REV_AT_EPOCH": 357, "BSTAR": -0.020696492, "MEAN_MOTION_DOT": -0.02006636, "MEAN_MOTION_DDOT": 0}, "tle": {"line1": "1 66590U 25270C   25340.91668981 -.02006636  00000+0 -20696-1 0  9992", "line2": "2 66590  42.9989 227.0675 0001247 267.5201 224.3258 15.67153528  3579"}}, "geometry": {"type": "Point", "coordinates": [69.79573420764989, -21.571525535044145]}}, {"type": "Feature", "properties": {"norad_id": 66591, "name": "STARLINK-36058", "group": "last-30-days", "lat": -23.90311714529611, "lon": 73.08202749306024, "alt_km": 373.534831833259, "timestamp": "2025-12-07T07:31:35.086756+00:00", "meta": {"OBJECT_NAME": "STARLINK-36058", "OBJECT_ID": "2025-270D", "EPOCH": "2025-12-06T22:00:01.999584", "MEAN_MOTION": 15.67154595, "ECCENTRICITY": 0.00012887, "INCLINATION": 42.9987, "RA_OF_ASC_NODE": 227.0581, "ARG_OF_PERICENTER": 266.9111, "MEAN_ANOMALY": 228.7681, "EPHEMERIS_TYPE": 0, "CLASSIFICATION_TYPE": "U", "NORAD_CAT_ID": 66591, "ELEMENT_SET_NO": 999, "REV_AT_EPOCH": 346, "BSTAR": -0.020722936, "MEAN_MOTION_DOT": -0.02008998, "MEAN_MOTION_DDOT": 0}, "tle": {"line1": "1 66591U 25270D   25340.91668981 -.02008998  00000+0 -20723-1 0  9997", "line2": "2 66591  42.9987 227.0581 0001288 266.9111 228.7681 15.67154595  3463"}}, "geometry": {"type": "Point", "coordinates": [73.08202749306024, -23.90311714529611]}}, {"type": "Feature", "properties": {"norad_id": 66592, "name": "STARLINK-36066", "group": "last-30-days", "lat": -25.04306232749303, "lon": 74.76986533132883, "alt_km": 373.58367504285616, "timestamp": "2025-12-07T07:31:35.086768+00:00", "meta": {"OBJECT_NAME": "STARLINK-36066", "OBJECT_ID": "2025-270E", "EPOCH": "2025-12-06T22:00:01.999584", "MEAN_MOTION": 15.67153903, "ECCENTRICITY": 0.00012348, "INCLINATION": 42.9989, "RA_OF_ASC_NODE": 227.0534, "ARG_OF_PERICENTER": 265.3912, "MEAN_ANOMALY": 232.2039, "EPHEMERIS_TYPE": 0, "CLASSIFICATION_TYPE": "U", "NORAD_CAT_ID": 66592, "ELEMENT_SET_NO": 999, "REV_AT_EPOCH": 336, "BSTAR": -0.020692701, "MEAN_MOTION_DOT": -0.02006331, "MEAN_MOTION_DDOT": 0}, "tle": {"line1": "1 66592U 25270E   25340.91668981 -.02006331  00000+0 -20693-1 0  9993", "line2": "2 66592  42.9989 227.0534 0001234 265.3912 232.2039 15.67153903  3365"}}, "geometry": {"type": "Point", "coordinates": [74.76986533132883, -25.04306232749303]}}]}